1 25338U 98030A   22021.15244417  .00000060  00000-0  43429-4 0  9998
2 25338  98.6615  52.4891 0010491  12.7749 347.3694 14.26083841232271